STARLINK-36644          
1 67821U 26033A   26075.25003472 -.01929307  00000+0 -24292-1 0  9993
2 67821  42.9996 231.7471 0001450 274.4830 216.2513 15.62060433  5711
STARLINK-36643          
1 67822U 26033B   26075.25003472 -.01887532  00000+0 -28319-1 0  9991
2 67822  42.9993 231.9558 0001701 273.1936 133.7541 15.57445400  5718
STARLINK-36646          
1 67823U 26033C   26075.25003472 -.01919114  00000+0 -25658-1 0  9997
2 67823  42.9996 231.7937 0001517 274.0323 197.6016 15.60507762  5716
STARLINK-36647          
1 67824U 26033D   26075.25003472 -.01883891  00000+0 -27030-1 0  9996
2 67824  42.9995 231.8751 0001866 270.8644 168.6648 15.58609308  5713
STARLINK-36648          
1 67825U 26033E   26075.25003472 -.01938397  00000+0 -18404-1 0  9994
2 67825  42.9995 231.4574 0001599 264.1339 342.6703 15.69035020  5715
STARLINK-35865          
1 67826U 26033F   26075.25003472 -.01912244  00000+0 -23625-1 0  9999
2 67826  42.9997 231.6733 0001378 273.1603 246.7635 15.62511389  5714
STARLINK-36289          
1 67827U 26033G   26075.25003472 -.01885078  00000+0 -27494-1 0  9992
2 67827  42.9991 231.8640 0001753 274.4168 169.2898 15.58183541  5715
STARLINK-36670          
1 67828U 26033H   26075.25003472 -.01913347  00000+0 -26006-1 0  9992
2 67828  42.9996 231.7599 0001438 272.4086 212.5445 15.60073310  5715
STARLINK-36144          
1 67829U 26033J   26075.25003472 -.01889499  00000+0 -26775-1 0  9996
2 67829  42.9995 231.8038 0001795 275.9802 191.5798 15.58945057  5714
STARLINK-36611          
1 67830U 26033K   26075.25003472 -.01920865  00000+0 -25076-1 0  9994
2 67830  42.9996 231.6903 0001508 273.8235 238.9383 15.61122710  5718
STARLINK-36661          
1 67831U 26033L   26075.25003472 -.01887659  00000+0 -30371-1 0  9992
2 67831  42.9998 231.9595 0001775 270.3232 134.2879 15.55589094  5719
STARLINK-36662          
1 67832U 26033M   26075.25003472 -.01244119  00000+0 -65787-2 0  9991
2 67832  42.9992 230.1816 0001779 272.6891 120.4790 15.82315272  5715
