CCSDS_OMM_VERS = 2.0
CREATION_DATE  = 
ORIGINATOR     = 

OBJECT_NAME    = STARLINK-36644
OBJECT_ID      = 2026-033A
CENTER_NAME    = EARTH
REF_FRAME      = TEME
TIME_SYSTEM    = UTC
MEAN_ELEMENT_THEORY = SGP/SGP4

EPOCH          = 2026-03-16T06:00:02.999808
MEAN_MOTION    = 15.62060433
ECCENTRICITY   = .00014501
INCLINATION    = 42.9996
RA_OF_ASC_NODE = 231.7471
ARG_OF_PERICENTER = 274.4830
MEAN_ANOMALY   = 216.2513

EPHEMERIS_TYPE = 0
CLASSIFICATION_TYPE = U
NORAD_CAT_ID   = 67821
ELEMENT_SET_NO = 999
REV_AT_EPOCH   = 571
BSTAR          = -.2429197E-1
MEAN_MOTION_DOT = -.1929307E-1
MEAN_MOTION_DDOT = 0

CCSDS_OMM_VERS = 2.0
CREATION_DATE  = 
ORIGINATOR     = 

OBJECT_NAME    = STARLINK-36643
OBJECT_ID      = 2026-033B
CENTER_NAME    = EARTH
REF_FRAME      = TEME
TIME_SYSTEM    = UTC
MEAN_ELEMENT_THEORY = SGP/SGP4

EPOCH          = 2026-03-16T06:00:02.999808
MEAN_MOTION    = 15.57445400
ECCENTRICITY   = .00017011
INCLINATION    = 42.9993
RA_OF_ASC_NODE = 231.9558
ARG_OF_PERICENTER = 273.1936
MEAN_ANOMALY   = 133.7541

EPHEMERIS_TYPE = 0
CLASSIFICATION_TYPE = U
NORAD_CAT_ID   = 67822
ELEMENT_SET_NO = 999
REV_AT_EPOCH   = 571
BSTAR          = -.28319408E-1
MEAN_MOTION_DOT = -.1887532E-1
MEAN_MOTION_DDOT = 0

CCSDS_OMM_VERS = 2.0
CREATION_DATE  = 
ORIGINATOR     = 

OBJECT_NAME    = STARLINK-36646
OBJECT_ID      = 2026-033C
CENTER_NAME    = EARTH
REF_FRAME      = TEME
TIME_SYSTEM    = UTC
MEAN_ELEMENT_THEORY = SGP/SGP4

EPOCH          = 2026-03-16T06:00:02.999808
MEAN_MOTION    = 15.60507762
ECCENTRICITY   = .00015178
INCLINATION    = 42.9996
RA_OF_ASC_NODE = 231.7937
ARG_OF_PERICENTER = 274.0323
MEAN_ANOMALY   = 197.6016

EPHEMERIS_TYPE = 0
CLASSIFICATION_TYPE = U
NORAD_CAT_ID   = 67823
ELEMENT_SET_NO = 999
REV_AT_EPOCH   = 571
BSTAR          = -.25657917E-1
MEAN_MOTION_DOT = -.1919114E-1
MEAN_MOTION_DDOT = 0

CCSDS_OMM_VERS = 2.0
CREATION_DATE  = 
ORIGINATOR     = 

OBJECT_NAME    = STARLINK-36647
OBJECT_ID      = 2026-033D
CENTER_NAME    = EARTH
REF_FRAME      = TEME
TIME_SYSTEM    = UTC
MEAN_ELEMENT_THEORY = SGP/SGP4

EPOCH          = 2026-03-16T06:00:02.999808
MEAN_MOTION    = 15.58609308
ECCENTRICITY   = .00018661
INCLINATION    = 42.9995
RA_OF_ASC_NODE = 231.8751
ARG_OF_PERICENTER = 270.8644
MEAN_ANOMALY   = 168.6648

EPHEMERIS_TYPE = 0
CLASSIFICATION_TYPE = U
NORAD_CAT_ID   = 67824
ELEMENT_SET_NO = 999
REV_AT_EPOCH   = 571
BSTAR          = -.27030156E-1
MEAN_MOTION_DOT = -.1883891E-1
MEAN_MOTION_DDOT = 0

CCSDS_OMM_VERS = 2.0
CREATION_DATE  = 
ORIGINATOR     = 

OBJECT_NAME    = STARLINK-36648
OBJECT_ID      = 2026-033E
CENTER_NAME    = EARTH
REF_FRAME      = TEME
TIME_SYSTEM    = UTC
MEAN_ELEMENT_THEORY = SGP/SGP4

EPOCH          = 2026-03-16T06:00:02.999808
MEAN_MOTION    = 15.69035020
ECCENTRICITY   = .00015995
INCLINATION    = 42.9995
RA_OF_ASC_NODE = 231.4574
ARG_OF_PERICENTER = 264.1339
MEAN_ANOMALY   = 342.6703

EPHEMERIS_TYPE = 0
CLASSIFICATION_TYPE = U
NORAD_CAT_ID   = 67825
ELEMENT_SET_NO = 999
REV_AT_EPOCH   = 571
BSTAR          = -.18403651E-1
MEAN_MOTION_DOT = -.1938397E-1
MEAN_MOTION_DDOT = 0

CCSDS_OMM_VERS = 2.0
CREATION_DATE  = 
ORIGINATOR     = 

OBJECT_NAME    = STARLINK-35865
OBJECT_ID      = 2026-033F
CENTER_NAME    = EARTH
REF_FRAME      = TEME
TIME_SYSTEM    = UTC
MEAN_ELEMENT_THEORY = SGP/SGP4

EPOCH          = 2026-03-16T06:00:02.999808
MEAN_MOTION    = 15.62511389
ECCENTRICITY   = .00013784
INCLINATION    = 42.9997
RA_OF_ASC_NODE = 231.6733
ARG_OF_PERICENTER = 273.1603
MEAN_ANOMALY   = 246.7635

EPHEMERIS_TYPE = 0
CLASSIFICATION_TYPE = U
NORAD_CAT_ID   = 67826
ELEMENT_SET_NO = 999
REV_AT_EPOCH   = 571
BSTAR          = -.23625429E-1
MEAN_MOTION_DOT = -.1912244E-1
MEAN_MOTION_DDOT = 0

CCSDS_OMM_VERS = 2.0
CREATION_DATE  = 
ORIGINATOR     = 

OBJECT_NAME    = STARLINK-36289
OBJECT_ID      = 2026-033G
CENTER_NAME    = EARTH
REF_FRAME      = TEME
TIME_SYSTEM    = UTC
MEAN_ELEMENT_THEORY = SGP/SGP4

EPOCH          = 2026-03-16T06:00:02.999808
MEAN_MOTION    = 15.58183541
ECCENTRICITY   = .00017539
INCLINATION    = 42.9991
RA_OF_ASC_NODE = 231.8640
ARG_OF_PERICENTER = 274.4168
MEAN_ANOMALY   = 169.2898

EPHEMERIS_TYPE = 0
CLASSIFICATION_TYPE = U
NORAD_CAT_ID   = 67827
ELEMENT_SET_NO = 999
REV_AT_EPOCH   = 571
BSTAR          = -.27494323E-1
MEAN_MOTION_DOT = -.1885078E-1
MEAN_MOTION_DDOT = 0

CCSDS_OMM_VERS = 2.0
CREATION_DATE  = 
ORIGINATOR     = 

OBJECT_NAME    = STARLINK-36670
OBJECT_ID      = 2026-033H
CENTER_NAME    = EARTH
REF_FRAME      = TEME
TIME_SYSTEM    = UTC
MEAN_ELEMENT_THEORY = SGP/SGP4

EPOCH          = 2026-03-16T06:00:02.999808
MEAN_MOTION    = 15.60073310
ECCENTRICITY   = .00014384
INCLINATION    = 42.9996
RA_OF_ASC_NODE = 231.7599
ARG_OF_PERICENTER = 272.4086
MEAN_ANOMALY   = 212.5445

EPHEMERIS_TYPE = 0
CLASSIFICATION_TYPE = U
NORAD_CAT_ID   = 67828
ELEMENT_SET_NO = 999
REV_AT_EPOCH   = 571
BSTAR          = -.26006067E-1
MEAN_MOTION_DOT = -.1913347E-1
MEAN_MOTION_DDOT = 0

CCSDS_OMM_VERS = 2.0
CREATION_DATE  = 
ORIGINATOR     = 

OBJECT_NAME    = STARLINK-36144
OBJECT_ID      = 2026-033J
CENTER_NAME    = EARTH
REF_FRAME      = TEME
TIME_SYSTEM    = UTC
MEAN_ELEMENT_THEORY = SGP/SGP4

EPOCH          = 2026-03-16T06:00:02.999808
MEAN_MOTION    = 15.58945057
ECCENTRICITY   = .00017957
INCLINATION    = 42.9995
RA_OF_ASC_NODE = 231.8038
ARG_OF_PERICENTER = 275.9802
MEAN_ANOMALY   = 191.5798

EPHEMERIS_TYPE = 0
CLASSIFICATION_TYPE = U
NORAD_CAT_ID   = 67829
ELEMENT_SET_NO = 999
REV_AT_EPOCH   = 571
BSTAR          = -.26775257E-1
MEAN_MOTION_DOT = -.1889499E-1
MEAN_MOTION_DDOT = 0

CCSDS_OMM_VERS = 2.0
CREATION_DATE  = 
ORIGINATOR     = 

OBJECT_NAME    = STARLINK-36611
OBJECT_ID      = 2026-033K
CENTER_NAME    = EARTH
REF_FRAME      = TEME
TIME_SYSTEM    = UTC
MEAN_ELEMENT_THEORY = SGP/SGP4

EPOCH          = 2026-03-16T06:00:02.999808
MEAN_MOTION    = 15.61122710
ECCENTRICITY   = .00015088
INCLINATION    = 42.9996
RA_OF_ASC_NODE = 231.6903
ARG_OF_PERICENTER = 273.8235
MEAN_ANOMALY   = 238.9383

EPHEMERIS_TYPE = 0
CLASSIFICATION_TYPE = U
NORAD_CAT_ID   = 67830
ELEMENT_SET_NO = 999
REV_AT_EPOCH   = 571
BSTAR          = -.25076361E-1
MEAN_MOTION_DOT = -.1920865E-1
MEAN_MOTION_DDOT = 0

CCSDS_OMM_VERS = 2.0
CREATION_DATE  = 
ORIGINATOR     = 

OBJECT_NAME    = STARLINK-36661
OBJECT_ID      = 2026-033L
CENTER_NAME    = EARTH
REF_FRAME      = TEME
TIME_SYSTEM    = UTC
MEAN_ELEMENT_THEORY = SGP/SGP4

EPOCH          = 2026-03-16T06:00:02.999808
MEAN_MOTION    = 15.55589094
ECCENTRICITY   = .00017751
INCLINATION    = 42.9998
RA_OF_ASC_NODE = 231.9595
ARG_OF_PERICENTER = 270.3232
MEAN_ANOMALY   = 134.2879

EPHEMERIS_TYPE = 0
CLASSIFICATION_TYPE = U
NORAD_CAT_ID   = 67831
ELEMENT_SET_NO = 999
REV_AT_EPOCH   = 571
BSTAR          = -.30370784E-1
MEAN_MOTION_DOT = -.1887659E-1
MEAN_MOTION_DDOT = 0

CCSDS_OMM_VERS = 2.0
CREATION_DATE  = 
ORIGINATOR     = 

OBJECT_NAME    = STARLINK-36662
OBJECT_ID      = 2026-033M
CENTER_NAME    = EARTH
REF_FRAME      = TEME
TIME_SYSTEM    = UTC
MEAN_ELEMENT_THEORY = SGP/SGP4

EPOCH          = 2026-03-16T06:00:02.999808
MEAN_MOTION    = 15.82315272
ECCENTRICITY   = .00017798
INCLINATION    = 42.9992
RA_OF_ASC_NODE = 230.1816
ARG_OF_PERICENTER = 272.6891
MEAN_ANOMALY   = 120.4790

EPHEMERIS_TYPE = 0
CLASSIFICATION_TYPE = U
NORAD_CAT_ID   = 67832
ELEMENT_SET_NO = 999
REV_AT_EPOCH   = 571
BSTAR          = -.65787312E-2
MEAN_MOTION_DOT = -.1244119E-1
MEAN_MOTION_DDOT = 0

